# Example 2

```
KDCA 242036Z 14016KT 4SM RA BR BKN019 BKN047 OVC070 17/15 A2943 RMK
AO2 PRESFR P0004 T01670150
```
* METAR
* `PRESFR`
  * Pressure falling rapidly
  * ==When pressure is rising or falling rapidly it means winds will be strong==
